NORAD_CAT_ID,OBJECT_NAME,OBJECT_TYPE,EPOCH,MEAN_MOTION,ECCENTRICITY,INCLINATION,RA_OF_ASC_NODE,ARG_OF_PERICENTER,MEAN_ANOMALY,BSTAR,MEAN_MOTION_DOT,MEAN_MOTION_DDOT,TLE_LINE0,TLE_LINE1,TLE_LINE2,SEMIMAJOR_AXIS,PERIOD,APOGEE,PERIGEE,DECAYED
53290.0,STARLINK-4149,PAYLOAD,2023-10-12 20:21:34,15.08846672,0.000132,53.217,169.3925,99.1243,260.9899,0.00036147,5.471e-05,0.0,0 STARLINK-4149,1 53290U 22086BA  23285.84832036  .00005471  00000-0  36147-3 0  9992,2 53290  53.2170 169.3925 0001320  99.1243 260.9899 15.08846672 68350,6917.86,95.437,540.638,538.812,0.0
53290.0,STARLINK-4149,PAYLOAD,2023-10-12 21:56:57,15.08849197,0.0001314,53.2168,169.0946,94.1948,265.9194,0.00044635,6.825e-05,0.0,0 STARLINK-4149,1 53290U 22086BA  23285.91455982  .00006825  00000-0  44635-3 0  9996,2 53290  53.2168 169.0946 0001314  94.1948 265.9194 15.08849197 68524,6917.852,95.437,540.626,538.808,0.0
53290.0,STARLINK-4149,PAYLOAD,2023-10-13 09:04:39,15.08854384,0.0001357,53.2162,167.0143,88.5798,271.5349,0.00046852,7.179e-05,0.0,0 STARLINK-4149,1 53290U 22086BA  23286.37823669  .00007179  00000-0  46852-3 0  9994,2 53290  53.2162 167.0143 0001357  88.5798 271.5349 15.08854384 68598,6917.836,95.437,540.64,538.763,0.0
53290.0,STARLINK-4149,PAYLOAD,2023-10-13 20:12:21,15.08844822,9.79e-05,53.2159,164.9333,87.8997,272.2107,0.00015894,2.243e-05,0.0,0 STARLINK-4149,1 53290U 22086BA  23286.84191748  .00002243  00000-0  15894-3 0  9991,2 53290  53.2159 164.9333 0000979  87.8997 272.2107 15.08844822 68500,6917.866,95.437,540.408,539.053,0.0
53290.0,STARLINK-4149,PAYLOAD,2023-10-13 21:47:44,15.08846573,0.0001357,53.2159,164.6361,85.4628,274.652,0.00025105,3.71e-05,0.0,0 STARLINK-4149,1 53290U 22086BA  23286.90815753  .00003710  00000-0  25105-3 0  9993,2 53290  53.2159 164.6361 0001357  85.4628 274.6520 15.08846573 68672,6917.86,95.437,540.664,538.787,0.0
53290.0,STARLINK-4149,PAYLOAD,2023-10-14 00:58:30,15.08856675,0.0001491,53.2165,164.0417,84.539,275.5772,0.0007526,0.00011715,0.0,0 STARLINK-4149,1 53290U 22086BA  23287.04063606  .00011715  00000-0  75260-3 0  9992,2 53290  53.2165 164.0417 0001491  84.5390 275.5772 15.08856675 68538,6917.829,95.436,540.726,538.663,0.0
53290.0,STARLINK-4149,PAYLOAD,2023-10-14 08:55:26,15.08837852,0.0001332,53.2164,162.5536,88.7837,271.3307,0.00019791,2.863e-05,0.0,0 STARLINK-4149,1 53290U 22086BA  23287.37183866  .00002863  00000-0  19791-3 0  9990,2 53290  53.2164 162.5536 0001332  88.7837 271.3307 15.08837852 68587,6917.887,95.438,540.673,538.83,0.0
53290.0,STARLINK-4149,PAYLOAD,2023-10-14 21:38:32,15.08833596,0.0001545,53.2154,160.1764,88.5966,271.5203,-4.9468e-05,-1.075e-05,0.0,0 STARLINK-4149,1 53290U 22086BA  23287.90176413 -.00001075  00000-0 -49468-4 0  9990,2 53290  53.2154 160.1764 0001545  88.5966 271.5203 15.08833596 68825,6917.9,95.438,540.834,538.696,0.0
53290.0,STARLINK-4149,PAYLOAD,2023-10-15 08:46:14,15.08834545,0.0001645,53.2163,158.0929,85.7893,274.3287,-8.1243e-06,-4.17e-06,0.0,0 STARLINK-4149,1 53290U 22086BA  23288.36544639 -.00000417  00000-0 -81243-5 0  9997,2 53290  53.2163 158.0929 0001645  85.7893 274.3287 15.08834545 68731,6917.897,95.438,540.9,538.624,0.0
53290.0,STARLINK-4149,PAYLOAD,2023-10-15 15:07:47,15.08832524,0.0001707,53.2161,156.9037,82.9087,277.2099,7.9841e-05,9.83e-06,0.0,0 STARLINK-4149,1 53290U 22086BA  23288.63040941  .00000983  00000-0  79841-4 0  9990,2 53290  53.2161 156.9037 0001707  82.9087 277.2099 15.08832524 68939,6917.903,95.438,540.949,538.587,0.0
53290.0,STARLINK-4149,PAYLOAD,2023-10-15 21:29:19,15.08835738,0.0001289,53.2155,155.7161,82.9767,277.1372,0.0001532,2.151e-05,0.0,0 STARLINK-4149,1 53290U 22086BA  23288.89536831  .00002151  00000-0  15320-3 0  9996,2 53290  53.2155 155.7161 0001289  82.9767 277.1372 15.08835738 68974,6917.893,95.438,540.65,538.867,0.0
53290.0,STARLINK-4149,PAYLOAD,2023-10-16 08:37:01,15.08843989,0.0001445,53.2151,153.6327,88.3957,271.72,0.00025427,3.761e-05,0.0,0 STARLINK-4149,1 53290U 22086BA  23289.35904607  .00003761  00000-0  25427-3 0  9995,2 53290  53.2151 153.6327 0001445  88.3957 271.7200 15.08843989 69042,6917.868,95.437,540.733,538.734,0.0
53290.0,STARLINK-4149,PAYLOAD,2023-10-16 18:09:20,15.08846217,0.0001536,53.2152,151.849,86.4336,273.6832,0.00032213,4.843e-05,0.0,0 STARLINK-4149,1 53290U 22086BA  23289.75648605  .00004843  00000-0  32213-3 0  9995,2 53290  53.2152 151.8490 0001536  86.4336 273.6832 15.08846217 68942,6917.861,95.437,540.789,538.664,0.0
53290.0,STARLINK-4149,PAYLOAD,2023-10-17 00:30:52,15.08856438,0.0001505,53.215,150.6592,88.7013,271.4151,0.00042916,6.552e-05,0.0,0 STARLINK-4149,1 53290U 22086BA  23290.02144100  .00006552  00000-0  42916-3 0  9998,2 53290  53.2150 150.6592 0001505  88.7013 271.4151 15.08856438 68983,6917.83,95.437,540.736,538.654,0.0
53290.0,STARLINK-4149,PAYLOAD,2023-10-18 00:21:39,15.08851302,0.0001246,53.2156,146.1983,86.247,273.8664,0.00023118,3.394e-05,0.0,0 STARLINK-4149,1 53290U 22086BA  23291.01504047  .00003394  00000-0  23118-3 0  9992,2 53290  53.2156 146.1983 0001246  86.2470 273.8664 15.08851302 69133,6917.846,95.437,540.573,538.849,0.0
53290.0,STARLINK-4149,PAYLOAD,2023-10-18 21:01:40,15.0884765,0.0001193,53.2151,142.3331,92.8745,267.2384,0.0002786,4.15e-05,0.0,0 STARLINK-4149,1 53290U 22086BA  23291.87616025  .00004150  00000-0  27860-3 0  9995,2 53290  53.2151 142.3331 0001193  92.8745 267.2384 15.08847650 69263,6917.857,95.437,540.547,538.897,0.0
53290.0,STARLINK-4149,PAYLOAD,2023-10-19 20:52:27,15.08853284,9.04e-05,53.2153,137.874,87.8155,272.2941,0.00038965,5.921e-05,0.0,0 STARLINK-4149,1 53290U 22086BA  23292.86975796  .00005921  00000-0  38965-3 0  9993,2 53290  53.2153 137.8740 0000904  87.8155 272.2941 15.08853284 69418,6917.84,95.437,540.33,539.079,0.0
53290.0,STARLINK-4149,PAYLOAD,2023-10-20 15:57:05,15.08827228,0.0001611,53.215,134.3043,85.8195,274.2981,-5.8074e-05,-1.212e-05,0.0,0 STARLINK-4149,1 53290U 22086BA  23293.66464665 -.00001212  00000-0 -58074-4 0  9995,2 53290  53.2150 134.3043 0001611  85.8195 274.2981 15.08827228 69539,6917.919,95.438,540.899,538.67,0.0
53290.0,STARLINK-4149,PAYLOAD,2023-10-20 22:18:38,15.08828953,0.0001676,53.2154,133.1133,81.2649,278.8533,-9.5389e-05,-1.805e-05,0.0,0 STARLINK-4149,1 53290U 22086BA  23293.92960900 -.00001805  00000-0 -95389-4 0  9995,2 53290  53.2154 133.1133 0001676  81.2649 278.8533 15.08828953 69736,6917.914,95.438,540.939,538.62,0.0
53290.0,STARLINK-4149,PAYLOAD,2023-10-21 12:37:06,15.08833042,0.0001749,53.2156,130.4365,79.1892,280.9297,0.00031834,4.781e-05,0.0,0 STARLINK-4149,1 53290U 22086BA  23294.52577335  .00004781  00000-0  31834-3 0  9996,2 53290  53.2156 130.4365 0001749  79.1892 280.9297 15.08833042 69828,6917.902,95.438,540.977,538.557,0.0
53290.0,STARLINK-4149,PAYLOAD,2023-10-21 15:47:52,15.08840184,0.0001748,53.2151,129.8426,81.9897,278.1293,0.00043215,6.596e-05,0.0,0 STARLINK-4149,1 53290U 22086BA  23294.65825134  .00006596  00000-0  43215-3 0  9995,2 53290  53.2151 129.8426 0001748  81.9897 278.1293 15.08840184 69682,6917.88,95.438,540.954,538.536,0.0
53290.0,STARLINK-4149,PAYLOAD,2023-10-22 12:27:53,15.08836316,0.0001369,53.2153,125.9782,102.4578,257.6567,0.00010473,1.379e-05,0.0,0 STARLINK-4149,1 53290U 22086BA  23295.51937135  .00001379  00000-0  10473-3 0  9990,2 53290  53.2153 125.9782 0001369 102.4578 257.6567 15.08836316 69813,6917.892,95.438,540.704,538.81,0.0
53290.0,STARLINK-4149,PAYLOAD,2023-10-22 20:24:49,15.08842794,0.00013,53.2153,124.4917,97.9767,262.1373,0.00026182,3.882e-05,0.0,0 STARLINK-4149,1 53290U 22086BA  23295.85056936  .00003882  00000-0  26182-3 0  9993,2 53290  53.2153 124.4917 0001300  97.9767 262.1373 15.08842794 70028,6917.872,95.437,540.636,538.838,0.0
53290.0,STARLINK-4149,PAYLOAD,2023-10-23 18:40:13,15.08848891,0.0001311,53.2154,120.3285,94.9291,265.1851,0.00054072,8.33e-05,0.0,0 STARLINK-4149,1 53290U 22086BA  23296.77792961  .00008330  00000-0  54072-3 0  9992,2 53290  53.2154 120.3285 0001311  94.9291 265.1851 15.08848891 70009,6917.853,95.437,540.625,538.811,0.0
53290.0,STARLINK-4149,PAYLOAD,2023-10-23 20:15:36,15.08849143,0.0001302,53.2153,120.0311,96.0443,264.0698,0.0005521,8.512e-05,0.0,0 STARLINK-4149,1 53290U 22086BA  23296.84416931  .00008512  00000-0  55210-3 0  9997,2 53290  53.2153 120.0311 0001302  96.0443 264.0698 15.08849143 70173,6917.852,95.437,540.618,538.817,0.0
53290.0,STARLINK-4149,PAYLOAD,2023-10-24 02:37:08,15.08842676,0.0001415,53.2154,118.8409,80.2795,279.8357,0.00027213,4.046e-05,0.0,0 STARLINK-4149,1 53290U 22086BA  23297.10913137  .00004046  00000-0  27213-3 0  9997,2 53290  53.2154 118.8409 0001415  80.2795 279.8357 15.08842676 70054,6917.872,95.437,540.716,538.758,0.0
53290.0,STARLINK-4149,PAYLOAD,2023-10-24 13:44:50,15.08844345,0.0001303,53.2153,116.7597,92.683,267.4311,0.00023887,3.516e-05,0.0,0 STARLINK-4149,1 53290U 22086BA  23297.57281045  .00003516  00000-0  23887-3 0  9998,2 53290  53.2153 116.7597 0001303  92.6830 267.4311 15.08844345 70284,6917.867,95.437,540.634,538.831,0.0
53290.0,STARLINK-4149,PAYLOAD,2023-10-25 13:35:37,15.08842965,0.0001303,53.2155,112.2992,89.1881,270.9261,0.0001634,2.314e-05,0.0,0 STARLINK-4149,1 53290U 22086BA  23298.56641023  .00002314  00000-0  16340-3 0  9995,2 53290  53.2155 112.2992 0001303  89.1881 270.9261 15.08842965 70271,6917.871,95.437,540.638,538.835,0.0
53290.0,STARLINK-4149,PAYLOAD,2023-10-25 21:32:33,15.08847701,0.0001288,53.2156,110.812,91.2169,268.8971,0.00021837,3.19e-05,0.0,0 STARLINK-4149,1 53290U 22086BA  23298.89760807  .00003190  00000-0  21837-3 0  9993,2 53290  53.2156 110.8120 0001288  91.2169 268.8971 15.08847701 70484,6917.857,95.437,540.613,538.831,0.0
53290.0,STARLINK-4149,PAYLOAD,2023-10-26 13:26:24,15.08840292,0.0001325,53.2156,107.8381,90.5777,269.5367,9.1162e-05,1.163e-05,0.0,0 STARLINK-4149,1 53290U 22086BA  23299.56001041  .00001163  00000-0  91162-4 0  9993,2 53290  53.2156 107.8381 0001325  90.5777 269.5367 15.08840292 70584,6917.879,95.438,540.661,538.828,0.0
